KUIPER-00008            
1 63724U 25088A   25201.16668981 -.00022462  00000+0 -14088-2 0  9990
2 63724  51.8853  67.3292 0012566  49.2054 301.1776 15.08441777 13167
KUIPER-00009            
1 63725U 25088B   25200.91668981 -.00311167  00000+0 -12972-1 0  9995
2 63725  51.8717  63.3362 0012622  69.0383  38.7445 15.24480005  5217
KUIPER-00010            
1 63726U 25088C   25200.91840196  .00009634  00000+0  28246-3 0  9990
2 63726  51.8647  62.8603 0010005  52.8115 307.3783 15.35819751 12830
KUIPER-00011            
1 63727U 25088D   25200.87808793  .00010801  00000+0  31914-3 0  9997
2 63727  51.8590  63.2815 0011701  60.5763 299.6389 15.35419951 12964
KUIPER-00012            
1 63728U 25088E   25200.87672717  .00010488  00000+0  30988-3 0  9994
2 63728  51.8575  63.2624 0011674  61.3149 298.9009 15.35456805 12917
KUIPER-00013            
1 63729U 25088F   25201.25002315 -.00775017  00000+0 -35668-1 0  9995
2 63729  51.8724  62.2773 0009018  38.4931 200.2845 15.22338564 13058
KUIPER-00014            
1 63730U 25088G   25201.25002315 -.00747181  00000+0 -34680-1 0  9991
2 63730  51.8735  63.1470 0011453  51.9945 144.2315 15.21927141 12857
KUIPER-00015            
1 63731U 25088H   25201.16668981  .00005606  00000+0  49393-3 0  9995
2 63731  51.8861  70.7476 0010535  45.1155  66.8979 14.97757310 13202
